start=new Date('2023-04-03T00:00:00.000Z').valueOf();
sats=[{"TLE_LINE1":"1 52644U 22052AY  23092.24193198  .00003035  00000-0  20869-3 0  9994","ECCENTRICITY":"0.00012050","TLE_LINE2":"2 52644  53.2169  33.5213 0001205  94.5282 265.5847 15.08836673 49225","OBJECT_ID":"2022-052AY","REV_AT_EPOCH":"4922","EPHEMERIS_TYPE":"0","OBJECT_TYPE":"PAYLOAD","DECAY_DATE":null,"ELEMENT_SET_NO":"999","BSTAR":"0.00020869000000","MEAN_ANOMALY":"265.5847","TIME_SYSTEM":"UTC","NORAD_CAT_ID":"52644","LAUNCH_DATE":"2022-05-14","SEMIMAJOR_AXIS":"6917.891","PERIOD":"95.438","RCS_SIZE":"LARGE","OBJECT_NAME":"STARLINK-3985","SITE":"AFETR","MEAN_MOTION_DDOT":"0.0000000000000","MEAN_MOTION_DOT":"0.00003035","MEAN_MOTION":"15.08836673","MEAN_ELEMENT_THEORY":"SGP4","REF_FRAME":"TEME","CENTER_NAME":"EARTH","INCLINATION":"53.2169","RA_OF_ASC_NODE":"33.5213","CLASSIFICATION_TYPE":"U","PERIAPSIS":"538.922","APOAPSIS":"540.589","EPOCH":"2023-04-02T05:48:22.923072","GP_ID":"229320245","COUNTRY_CODE":"US","ARG_OF_PERICENTER":"94.5282","FILE":"3878126"},{"INCLINATION":"53.2166","CENTER_NAME":"EARTH","REF_FRAME":"TEME","MEAN_ELEMENT_THEORY":"SGP4","MEAN_MOTION":"15.08849430","MEAN_MOTION_DDOT":"0.0000000000000","MEAN_MOTION_DOT":"0.00000496","SITE":"AFETR","FILE":"3878126","ARG_OF_PERICENTER":"101.5770","COUNTRY_CODE":"US","GP_ID":"229319005","APOAPSIS":"540.595","EPOCH":"2023-04-02T05:32:29.317632","PERIAPSIS":"538.838","CLASSIFICATION_TYPE":"U","RA_OF_ASC_NODE":"33.6731","BSTAR":"0.00004925900000","ELEMENT_SET_NO":"999","DECAY_DATE":null,"OBJECT_TYPE":"PAYLOAD","EPHEMERIS_TYPE":"0","REV_AT_EPOCH":"4922","OBJECT_ID":"2022-052AZ","TLE_LINE2":"2 52645  53.2166  33.6731 0001270 101.5770 258.5365 15.08849430 49224","ECCENTRICITY":"0.00012700","TLE_LINE1":"1 52645U 22052AZ  23092.23089488  .00000496  00000-0  49259-4 0  9993","OBJECT_NAME":"STARLINK-3973","RCS_SIZE":"LARGE","SEMIMAJOR_AXIS":"6917.852","PERIOD":"95.437","LAUNCH_DATE":"2022-05-14","NORAD_CAT_ID":"52645","TIME_SYSTEM":"UTC","MEAN_ANOMALY":"258.5365"},{"ECCENTRICITY":"0.00012020","TLE_LINE2":"2 52646  53.2174  33.5758 0001202  93.4387 266.6742 15.08854849 49230","TLE_LINE1":"1 52646U 22052BA  23092.23184463  .00006343  00000-0  41607-3 0  9998","REV_AT_EPOCH":"4923","EPHEMERIS_TYPE":"0","OBJECT_ID":"2022-052BA","OBJECT_TYPE":"PAYLOAD","DECAY_DATE":null,"BSTAR":"0.00041607000000","ELEMENT_SET_NO":"999","TIME_SYSTEM":"UTC","NORAD_CAT_ID":"52646","MEAN_ANOMALY":"266.6742","LAUNCH_DATE":"2022-05-14","PERIOD":"95.437","SEMIMAJOR_AXIS":"6917.835","OBJECT_NAME":"STARLINK-3832","RCS_SIZE":"LARGE","SITE":"AFETR","MEAN_ELEMENT_THEORY":"SGP4","MEAN_MOTION_DDOT":"0.0000000000000","MEAN_MOTION_DOT":"0.00006343","MEAN_MOTION":"15.08854849","CENTER_NAME":"EARTH","REF_FRAME":"TEME","INCLINATION":"53.2174","RA_OF_ASC_NODE":"33.5758","CLASSIFICATION_TYPE":"U","APOAPSIS":"540.532","EPOCH":"2023-04-02T05:33:51.376032","PERIAPSIS":"538.868","COUNTRY_CODE":"US","GP_ID":"229319255","FILE":"3878126","ARG_OF_PERICENTER":"93.4387"},{"INCLINATION":"53.2168","CENTER_NAME":"EARTH","REF_FRAME":"TEME","MEAN_ELEMENT_THEORY":"SGP4","MEAN_MOTION_DDOT":"0.0000000000000","MEAN_MOTION_DOT":"0.00005926","MEAN_MOTION":"15.08839399","SITE":"AFETR","FILE":"3878151","ARG_OF_PERICENTER":"119.3703","COUNTRY_CODE":"US","GP_ID":"229323351","EPOCH":"2023-04-02T19:40:22.210464","APOAPSIS":"540.561","PERIAPSIS":"538.933","RA_OF_ASC_NODE":"31.0311","CLASSIFICATION_TYPE":"U","BSTAR":"0.00039011000000","ELEMENT_SET_NO":"999","OBJECT_TYPE":"PAYLOAD","DECAY_DATE":null,"EPHEMERIS_TYPE":"0","REV_AT_EPOCH":"4969","OBJECT_ID":"2022-052BB","ECCENTRICITY":"0.00011770","TLE_LINE2":"2 52647  53.2168  31.0311 0001177 119.3703 240.7406 15.08839399 49696","TLE_LINE1":"1 52647U 22052BB  23092.81970151  .00005926  00000-0  39011-3 0  9992","OBJECT_NAME":"STARLINK-3846","RCS_SIZE":"LARGE","PERIOD":"95.438","SEMIMAJOR_AXIS":"6917.882","LAUNCH_DATE":"2022-05-14","TIME_SYSTEM":"UTC","NORAD_CAT_ID":"52647","MEAN_ANOMALY":"240.7406"},{"ARG_OF_PERICENTER":"83.8973","FILE":"3878151","GP_ID":"229323137","COUNTRY_CODE":"US","PERIAPSIS":"538.869","EPOCH":"2023-04-02T19:45:39.393504","APOAPSIS":"540.618","CLASSIFICATION_TYPE":"U","RA_OF_ASC_NODE":"30.9097","INCLINATION":"53.2171","REF_FRAME":"TEME","CENTER_NAME":"EARTH","MEAN_MOTION":"15.08840730","MEAN_MOTION_DDOT":"0.0000000000000","MEAN_MOTION_DOT":"0.00001518","MEAN_ELEMENT_THEORY":"SGP4","SITE":"AFETR","OBJECT_NAME":"STARLINK-3854","RCS_SIZE":"LARGE","SEMIMAJOR_AXIS":"6917.878","PERIOD":"95.438","LAUNCH_DATE":"2022-05-14","MEAN_ANOMALY":"276.2163","NORAD_CAT_ID":"52648","TIME_SYSTEM":"UTC","ELEMENT_SET_NO":"999","BSTAR":"0.00011341000000","OBJECT_TYPE":"PAYLOAD","DECAY_DATE":null,"OBJECT_ID":"2022-052BC","EPHEMERIS_TYPE":"0","REV_AT_EPOCH":"4969","TLE_LINE1":"1 52648U 22052BC  23092.82337261  .00001518  00000-0  11341-3 0  9992","TLE_LINE2":"2 52648  53.2171  30.9097 0001264  83.8973 276.2163 15.08840730 49696","ECCENTRICITY":"0.00012640"},{"GP_ID":"229351992","COUNTRY_CODE":"US","ARG_OF_PERICENTER":"103.8659","FILE":"3878419","RA_OF_ASC_NODE":"30.5853","CLASSIFICATION_TYPE":"U","PERIAPSIS":"538.576","EPOCH":"2023-04-02T20:43:55.342272","APOAPSIS":"540.915","REF_FRAME":"TEME","CENTER_NAME":"EARTH","INCLINATION":"53.2189","SITE":"AFETR","MEAN_MOTION_DDOT":"0.0000000000000","MEAN_MOTION_DOT":"0.00006205","MEAN_MOTION":"15.08839961","MEAN_ELEMENT_THEORY":"SGP4","SEMIMAJOR_AXIS":"6917.881","PERIOD":"95.438","OBJECT_NAME":"STARLINK-3868","RCS_SIZE":"LARGE","MEAN_ANOMALY":"256.2521","TIME_SYSTEM":"UTC","NORAD_CAT_ID":"52649","LAUNCH_DATE":"2022-05-14","OBJECT_TYPE":"PAYLOAD","DECAY_DATE":null,"ELEMENT_SET_NO":"999","BSTAR":"0.00040763000000","TLE_LINE1":"1 52649U 22052BD  23092.86383498  .00006205  00000-0  40763-3 0  9998","ECCENTRICITY":"0.00016910","TLE_LINE2":"2 52649  53.2189  30.5853 0001691 103.8659 256.2521 15.08839961 49331","OBJECT_ID":"2022-052BD","REV_AT_EPOCH":"4933","EPHEMERIS_TYPE":"0"},{"MEAN_ELEMENT_THEORY":"SGP4","MEAN_MOTION_DDOT":"0.0000000000000","MEAN_MOTION_DOT":"0.00002369","MEAN_MOTION":"15.08834598","SITE":"AFETR","INCLINATION":"53.2178","CENTER_NAME":"EARTH","REF_FRAME":"TEME","EPOCH":"2023-04-02T21:18:26.809920","APOAPSIS":"541.412","PERIAPSIS":"538.112","RA_OF_ASC_NODE":"20.6242","CLASSIFICATION_TYPE":"U","FILE":"3878419","ARG_OF_PERICENTER":"109.2221","COUNTRY_CODE":"US","GP_ID":"229352242","REV_AT_EPOCH":"4947","EPHEMERIS_TYPE":"0","OBJECT_ID":"2022-052BE","ECCENTRICITY":"0.00023850","TLE_LINE2":"2 52650  53.2178  20.6242 0002385 109.2221 250.9030 15.08834598 49471","TLE_LINE1":"1 52650U 22052BE  23092.88781030  .00002369  00000-0  16690-3 0  9995","BSTAR":"0.00016690000000","ELEMENT_SET_NO":"999","OBJECT_TYPE":"PAYLOAD","DECAY_DATE":null,"LAUNCH_DATE":"2022-05-14","TIME_SYSTEM":"UTC","NORAD_CAT_ID":"52650","MEAN_ANOMALY":"250.9030","RCS_SIZE":"LARGE","OBJECT_NAME":"STARLINK-3891","SEMIMAJOR_AXIS":"6917.897","PERIOD":"95.438"},{"FILE":"3878419","ARG_OF_PERICENTER":"78.9493","COUNTRY_CODE":"US","GP_ID":"229353222","EPOCH":"2023-04-02T19:03:54.989280","APOAPSIS":"540.444","PERIAPSIS":"538.993","CLASSIFICATION_TYPE":"U","RA_OF_ASC_NODE":"286.0492","INCLINATION":"53.2148","CENTER_NAME":"EARTH","REF_FRAME":"TEME","MEAN_ELEMENT_THEORY":"SGP4","MEAN_MOTION":"15.08848827","MEAN_MOTION_DDOT":"0.0000000000000","MEAN_MOTION_DOT":"0.00005654","SITE":"AFETR","OBJECT_NAME":"STARLINK-4004","RCS_SIZE":"LARGE","SEMIMAJOR_AXIS":"6917.853","PERIOD":"95.437","LAUNCH_DATE":"2022-05-18","NORAD_CAT_ID":"52656","TIME_SYSTEM":"UTC","MEAN_ANOMALY":"281.1617","BSTAR":"0.00037292000000","ELEMENT_SET_NO":"999","DECAY_DATE":null,"OBJECT_TYPE":"PAYLOAD","REV_AT_EPOCH":"4929","EPHEMERIS_TYPE":"0","OBJECT_ID":"2022-053A","TLE_LINE2":"2 52656  53.2148 286.0492 0001049  78.9493 281.1617 15.08848827 49295","ECCENTRICITY":"0.00010490","TLE_LINE1":"1 52656U 22053A   23092.79438645  .00005654  00000-0  37292-3 0  9994"},{"CLASSIFICATION_TYPE":"U","RA_OF_ASC_NODE":"286.0146","APOAPSIS":"540.483","EPOCH":"2023-04-02T19:14:31.071264","PERIAPSIS":"538.952","COUNTRY_CODE":"US","GP_ID":"229352493","FILE":"3878419","ARG_OF_PERICENTER":"81.2630","SITE":"AFETR","MEAN_ELEMENT_THEORY":"SGP4","MEAN_MOTION":"15.08849099","MEAN_MOTION_DOT":"0.00008851","MEAN_MOTION_DDOT":"0.0000000000000","CENTER_NAME":"EARTH","REF_FRAME":"TEME","INCLINATION":"53.2148","NORAD_CAT_ID":"52657","TIME_SYSTEM":"UTC","MEAN_ANOMALY":"278.8487","LAUNCH_DATE":"2022-05-18","SEMIMAJOR_AXIS":"6917.853","PERIOD":"95.437","RCS_SIZE":"LARGE","OBJECT_NAME":"STARLINK-4084","TLE_LINE2":"2 52657  53.2148 286.0146 0001107  81.2630 278.8487 15.08849099 49590","ECCENTRICITY":"0.00011070","TLE_LINE1":"1 52657U 22053B   23092.80174851  .00008851  00000-0  57332-3 0  9992","REV_AT_EPOCH":"4959","EPHEMERIS_TYPE":"0","OBJECT_ID":"2022-053B","OBJECT_TYPE":"PAYLOAD","DECAY_DATE":null,"BSTAR":"0.00057332000000","ELEMENT_SET_NO":"999"},{"GP_ID":"229352743","COUNTRY_CODE":"US","ARG_OF_PERICENTER":"69.4034","FILE":"3878419","CLASSIFICATION_TYPE":"U","RA_OF_ASC_NODE":"286.0296","PERIAPSIS":"539.123","EPOCH":"2023-04-02T19:09:13.105440","APOAPSIS":"540.253","REF_FRAME":"TEME","CENTER_NAME":"EARTH","INCLINATION":"53.2149","SITE":"AFETR","MEAN_MOTION":"15.08858871","MEAN_MOTION_DDOT":"0.0000000000000","MEAN_MOTION_DOT":"0.00014162","MEAN_ELEMENT_THEORY":"SGP4","SEMIMAJOR_AXIS":"6917.823","PERIOD":"95.436","RCS_SIZE":"LARGE","OBJECT_NAME":"STARLINK-4082","MEAN_ANOMALY":"290.7046","NORAD_CAT_ID":"52658","TIME_SYSTEM":"UTC","LAUNCH_DATE":"2022-05-18","DECAY_DATE":null,"OBJECT_TYPE":"PAYLOAD","ELEMENT_SET_NO":"999","BSTAR":"0.00090565000000","TLE_LINE1":"1 52658U 22053C   23092.79806835  .00014162  00000-0  90565-3 0  9992","TLE_LINE2":"2 52658  53.2149 286.0296 0000817  69.4034 290.7046 15.08858871 49414","ECCENTRICITY":"0.00008170","OBJECT_ID":"2022-053C","REV_AT_EPOCH":"4941","EPHEMERIS_TYPE":"0"}];
